[{"OBJECT_NAME":"OBJECT K","OBJECT_ID":"2024-092K","EPOCH":"2026-03-09T22:27:09.905184","MEAN_MOTION":15.32834875,"ECCENTRICITY":0.00087198,"INCLINATION":97.6413,"RA_OF_ASC_NODE":198.1023,"ARG_OF_PERICENTER":142.4952,"MEAN_ANOMALY":217.69,"EPHEMERIS_TYPE":0,"CLASSIFICATION_TYPE":"U","NORAD_CAT_ID":59809,"ELEMENT_SET_NO":999,"REV_AT_EPOCH":10001,"BSTAR":0.0007267688,"MEAN_MOTION_DOT":0.00023035,"MEAN_MOTION_DDOT":0},{"OBJECT_NAME":"STARLINK-33577","OBJECT_ID":"2025-015E","EPOCH":"2026-03-09T22:33:41.447520","MEAN_MOTION":15.30212007,"ECCENTRICITY":0.00039035,"INCLINATION":53.1586,"RA_OF_ASC_NODE":320.9972,"ARG_OF_PERICENTER":166.1901,"MEAN_ANOMALY":193.9208,"EPHEMERIS_TYPE":0,"CLASSIFICATION_TYPE":"U","NORAD_CAT_ID":62762,"ELEMENT_SET_NO":999,"REV_AT_EPOCH":6452,"BSTAR":0.00073719694,"MEAN_MOTION_DOT":0.00021549,"MEAN_MOTION_DDOT":0}]
